{
    "links": {
        "self": "http://www.neowsapp.com/rest/v1/neo/3759777?api_key=iIulBulltgU6a56xZRHN4H3l9WmuAYTsLGpBGhQ2"
    },
    "id": "3759777",
    "neo_reference_id": "3759777",
    "name": "(2016 SU3)",
    "designation": "2016 SU3",
    "nasa_jpl_url": "http://ssd.jpl.nasa.gov/sbdb.cgi?sstr=3759777",
    "absolute_magnitude_h": 25.3,
    "estimated_diameter": {
        "kilometers": {
            "estimated_diameter_min": 0.0231502122,
            "estimated_diameter_max": 0.0517654482
        },
        "meters": {
            "estimated_diameter_min": 23.150212221,
            "estimated_diameter_max": 51.7654482198
        },
        "miles": {
            "estimated_diameter_min": 0.0143848705,
            "estimated_diameter_max": 0.0321655483
        },
        "feet": {
            "estimated_diameter_min": 75.9521422633,
            "estimated_diameter_max": 169.8341531374
        }
    },
    "is_potentially_hazardous_asteroid": false,
    "close_approach_data": [
        {
            "close_approach_date": "2016-09-22",
            "close_approach_date_full": "2016-Sep-22 07:10",
            "epoch_date_close_approach": 1474528200000,
            "relative_velocity": {
                "kilometers_per_second": "8.1766178728",
                "kilometers_per_hour": "29435.8243420935",
                "miles_per_hour": "18290.2765196747"
            },
            "miss_distance": {
                "astronomical": "0.0390933259",
                "lunar": "15.2073037751",
                "kilometers": "5848278.285855833",
                "miles": "3633951.6182551754"
            },
            "orbiting_body": "Earth"
        },
        {
            "close_approach_date": "2018-01-09",
            "close_approach_date_full": "2018-Jan-09 17:46",
            "epoch_date_close_approach": 1515519960000,
            "relative_velocity": {
                "kilometers_per_second": "6.3027120248",
                "kilometers_per_hour": "22689.7632892229",
                "miles_per_hour": "14098.5365282396"
            },
            "miss_distance": {
                "astronomical": "0.0287190709",
                "lunar": "11.1717185801",
                "kilometers": "4296311.835018983",
                "miles": "2669604.3830806454"
            },
            "orbiting_body": "Mars"
        }
    ],
    "orbital_data": {
        "orbit_id": "5",
        "orbit_determination_date": "2018-02-10 07:08:15",
        "first_observation_date": "2016-09-26",
        "last_observation_date": "2016-10-07",
        "data_arc_in_days": 11,
        "observations_used": 36,
        "orbit_uncertainty": "7",
        "minimum_orbit_intersection": ".0170745",
        "jupiter_tisserand_invariant": "4.486",
        "epoch_osculation": "2459000.5",
        "eccentricity": ".3483319732271136",
        "semi_major_axis": "1.492763267192019",
        "inclination": "4.926452618649424",
        "ascending_node_longitude": "183.4359488740033",
        "orbital_period": "666.1696403039296",
        "perihelion_distance": ".9727860927700703",
        "perihelion_argument": "137.908154565852",
        "aphelion_distance": "2.012740441613968",
        "perihelion_time": "2458954.510223179199",
        "mean_anomaly": "24.85300838377285",
        "mean_motion": ".5404028917255305",
        "equinox": "J2000",
        "orbit_class": {
            "orbit_class_type": "APO",
            "orbit_class_description": "Near-Earth asteroid orbits which cross the Earth’s orbit similar to that of 1862 Apollo",
            "orbit_class_range": "a (semi-major axis) > 1.0 AU; q (perihelion) < 1.017 AU"
        }
    },
    "is_sentry_object": false
}